STARLINK-35732          
1 67037U 25294H   26079.98343375  .00028562  00000+0  10423-2 0  9995
2 67037  43.0043 334.5325 0002281 272.0331  88.0260 15.27616364 16524
STARLINK-35775          
1 67038U 25294J   26080.99491833 -.00004741  00000+0 -16290-3 0  9996
2 67038  43.0025 328.3665 0001102 294.3272  65.7464 15.27576945 16691
STARLINK-35705          
1 67039U 25294K   26081.00004977 -.00023053  00000+0 -83098-3 0  9996
2 67039  43.0036 328.4013 0001640 278.3144  81.7522 15.27572695 16689
STARLINK-35786          
1 67040U 25294L   26080.96165777  .00025567  00000+0  93444-3 0  9994
2 67040  42.9997 328.9778 0000925 243.2085 116.8672 15.27613476 16676
STARLINK-35765          
1 67041U 25294M   26080.95009565  .00030284  00000+0  11058-2 0  9998
2 67041  43.0037 328.8880 0002036 127.5559 232.5478 15.27571285 16673
STARLINK-35773          
1 67042U 25294N   26080.42442332  .00033811  00000+0  12300-2 0  9994
2 67042  43.0042 331.8233 0002413 253.6134 106.4453 15.27647042 16593
STARLINK-35901          
1 67043U 25294P   26080.95522965  .00018611  00000+0  68499-3 0  9996
2 67043  43.0037 328.9266 0001188 239.8244 120.2490 15.27538457 16670
STARLINK-35884          
1 67044U 25294Q   26080.39358512  .00029653  00000+0  10810-2 0  9991
2 67044  43.0003 331.5921 0002062 277.7124  82.3494 15.27633071 16593
STARLINK-35891          
1 67045U 25294R   26080.96808471 -.00002020  00000+0 -63910-4 0  9991
2 67045  43.0011 329.0204 0001243 275.2652  84.8057 15.27568795 16679
STARLINK-35721          
1 67046U 25294S   26080.96036921  .00016564  00000+0  61054-3 0  9997
2 67046  43.0013 328.9617 0001301 277.3917  82.6787 15.27556742 16675
STARLINK-35779          
1 67047U 25294T   26080.93981141  .00040075  00000+0  14598-2 0  9992
2 67047  43.0033 328.8126 0001642 253.5196 106.5475 15.27537188 16678
STARLINK-35905          
1 67048U 25294U   26080.95137697  .00031444  00000+0  11474-2 0  9994
2 67048  43.0039 328.9017 0001519 276.4600  83.6078 15.27578076 16677
STARLINK-35877          
1 67049U 25294V   26080.70395857  .00034943  00000+0  12711-2 0  9994
2 67049  42.9996 330.4805 0001685 257.5704 102.4959 15.27636724 16639
STARLINK-36078          
1 67050U 25294W   26080.99363393 -.00012314  00000+0 -43909-3 0  9991
2 67050  43.0017 328.3527 0001292 271.2336  88.8368 15.27551552 16683
STARLINK-35706          
1 67051U 25294X   26080.75008202  .00041194  00000+0  14953-2 0  9993
2 67051  43.0019 329.9633 0001428 257.5826 102.4866 15.27642337 16647
STARLINK-35720          
1 67052U 25294Y   26080.93852635 -.00006781  00000+0 -23700-3 0  9997
2 67052  43.0048 328.7989 0002261 274.4886  85.5707 15.27593454 16674
