[{"OBJECT_NAME":"STARLINK-35732","OBJECT_ID":"2025-294H","EPOCH":"2026-03-20T23:36:08.676000","MEAN_MOTION":15.27616364,"ECCENTRICITY":0.00022813,"INCLINATION":43.0043,"RA_OF_ASC_NODE":334.5325,"ARG_OF_PERICENTER":272.0331,"MEAN_ANOMALY":88.026,"EPHEMERIS_TYPE":0,"CLASSIFICATION_TYPE":"U","NORAD_CAT_ID":67037,"ELEMENT_SET_NO":999,"REV_AT_EPOCH":1652,"BSTAR":0.0010422639,"MEAN_MOTION_DOT":0.00028562,"MEAN_MOTION_DDOT":0},{"OBJECT_NAME":"STARLINK-35775","OBJECT_ID":"2025-294J","EPOCH":"2026-03-21T23:52:40.943712","MEAN_MOTION":15.27576945,"ECCENTRICITY":0.00011024,"INCLINATION":43.0025,"RA_OF_ASC_NODE":328.3665,"ARG_OF_PERICENTER":294.3272,"MEAN_ANOMALY":65.7464,"EPHEMERIS_TYPE":0,"CLASSIFICATION_TYPE":"U","NORAD_CAT_ID":67038,"ELEMENT_SET_NO":999,"REV_AT_EPOCH":1669,"BSTAR":-0.00016290073,"MEAN_MOTION_DOT":-4.741e-5,"MEAN_MOTION_DDOT":0},{"OBJECT_NAME":"STARLINK-35705","OBJECT_ID":"2025-294K","EPOCH":"2026-03-22T00:00:04.300128","MEAN_MOTION":15.27572695,"ECCENTRICITY":0.00016402,"INCLINATION":43.0036,"RA_OF_ASC_NODE":328.4013,"ARG_OF_PERICENTER":278.3144,"MEAN_ANOMALY":81.7522,"EPHEMERIS_TYPE":0,"CLASSIFICATION_TYPE":"U","NORAD_CAT_ID":67039,"ELEMENT_SET_NO":999,"REV_AT_EPOCH":1668,"BSTAR":-0.00083097853,"MEAN_MOTION_DOT":-0.00023053,"MEAN_MOTION_DDOT":0},{"OBJECT_NAME":"STARLINK-35786","OBJECT_ID":"2025-294L","EPOCH":"2026-03-21T23:04:47.231328","MEAN_MOTION":15.27613476,"ECCENTRICITY":9.25e-5,"INCLINATION":42.9997,"RA_OF_ASC_NODE":328.9778,"ARG_OF_PERICENTER":243.2085,"MEAN_ANOMALY":116.8672,"EPHEMERIS_TYPE":0,"CLASSIFICATION_TYPE":"U","NORAD_CAT_ID":67040,"ELEMENT_SET_NO":999,"REV_AT_EPOCH":1667,"BSTAR":0.00093443532,"MEAN_MOTION_DOT":0.00025567,"MEAN_MOTION_DDOT":0},{"OBJECT_NAME":"STARLINK-35765","OBJECT_ID":"2025-294M","EPOCH":"2026-03-21T22:48:08.264160","MEAN_MOTION":15.27571285,"ECCENTRICITY":0.00020369,"INCLINATION":43.0037,"RA_OF_ASC_NODE":328.888,"ARG_OF_PERICENTER":127.5559,"MEAN_ANOMALY":232.5478,"EPHEMERIS_TYPE":0,"CLASSIFICATION_TYPE":"U","NORAD_CAT_ID":67041,"ELEMENT_SET_NO":999,"REV_AT_EPOCH":1667,"BSTAR":0.0011057812,"MEAN_MOTION_DOT":0.00030284,"MEAN_MOTION_DDOT":0},{"OBJECT_NAME":"STARLINK-35773","OBJECT_ID":"2025-294N","EPOCH":"2026-03-21T10:11:10.174848","MEAN_MOTION":15.27647042,"ECCENTRICITY":0.00024131,"INCLINATION":43.0042,"RA_OF_ASC_NODE":331.8233,"ARG_OF_PERICENTER":253.6134,"MEAN_ANOMALY":106.4453,"EPHEMERIS_TYPE":0,"CLASSIFICATION_TYPE":"U","NORAD_CAT_ID":67042,"ELEMENT_SET_NO":999,"REV_AT_EPOCH":1659,"BSTAR":0.0012300218,"MEAN_MOTION_DOT":0.00033811,"MEAN_MOTION_DDOT":0},{"OBJECT_NAME":"STARLINK-35901","OBJECT_ID":"2025-294P","EPOCH":"2026-03-21T22:55:31.841760","MEAN_MOTION":15.27538457,"ECCENTRICITY":0.0001188,"INCLINATION":43.0037,"RA_OF_ASC_NODE":328.9266,"ARG_OF_PERICENTER":239.8244,"MEAN_ANOMALY":120.249,"EPHEMERIS_TYPE":0,"CLASSIFICATION_TYPE":"U","NORAD_CAT_ID":67043,"ELEMENT_SET_NO":999,"REV_AT_EPOCH":1667,"BSTAR":0.00068498822,"MEAN_MOTION_DOT":0.00018611,"MEAN_MOTION_DDOT":0},{"OBJECT_NAME":"STARLINK-35884","OBJECT_ID":"2025-294Q","EPOCH":"2026-03-21T09:26:45.754368","MEAN_MOTION":15.27633071,"ECCENTRICITY":0.00020621,"INCLINATION":43.0003,"RA_OF_ASC_NODE":331.5921,"ARG_OF_PERICENTER":277.7124,"MEAN_ANOMALY":82.3494,"EPHEMERIS_TYPE":0,"CLASSIFICATION_TYPE":"U","NORAD_CAT_ID":67044,"ELEMENT_SET_NO":999,"REV_AT_EPOCH":1659,"BSTAR":0.0010810003,"MEAN_MOTION_DOT":0.00029653,"MEAN_MOTION_DDOT":0},{"OBJECT_NAME":"STARLINK-35891","OBJECT_ID":"2025-294R","EPOCH":"2026-03-21T23:14:02.518944","MEAN_MOTION":15.27568795,"ECCENTRICITY":0.00012436,"INCLINATION":43.0011,"RA_OF_ASC_NODE":329.0204,"ARG_OF_PERICENTER":275.2652,"MEAN_ANOMALY":84.8057,"EPHEMERIS_TYPE":0,"CLASSIFICATION_TYPE":"U","NORAD_CAT_ID":67045,"ELEMENT_SET_NO":999,"REV_AT_EPOCH":1667,"BSTAR":-6.3909881e-5,"MEAN_MOTION_DOT":-2.02e-5,"MEAN_MOTION_DDOT":0},{"OBJECT_NAME":"STARLINK-35721","OBJECT_ID":"2025-294S","EPOCH":"2026-03-21T23:02:55.899744","MEAN_MOTION":15.27556742,"ECCENTRICITY":0.00013019,"INCLINATION":43.0013,"RA_OF_ASC_NODE":328.9617,"ARG_OF_PERICENTER":277.3917,"MEAN_ANOMALY":82.6787,"EPHEMERIS_TYPE":0,"CLASSIFICATION_TYPE":"U","NORAD_CAT_ID":67046,"ELEMENT_SET_NO":999,"REV_AT_EPOCH":1667,"BSTAR":0.0006105365,"MEAN_MOTION_DOT":0.00016564,"MEAN_MOTION_DDOT":0},{"OBJECT_NAME":"STARLINK-35779","OBJECT_ID":"2025-294T","EPOCH":"2026-03-21T22:33:19.705824","MEAN_MOTION":15.27537188,"ECCENTRICITY":0.00016425,"INCLINATION":43.0033,"RA_OF_ASC_NODE":328.8126,"ARG_OF_PERICENTER":253.5196,"MEAN_ANOMALY":106.5475,"EPHEMERIS_TYPE":0,"CLASSIFICATION_TYPE":"U","NORAD_CAT_ID":67047,"ELEMENT_SET_NO":999,"REV_AT_EPOCH":1667,"BSTAR":0.0014598019,"MEAN_MOTION_DOT":0.00040075,"MEAN_MOTION_DDOT":0},{"OBJECT_NAME":"STARLINK-35905","OBJECT_ID":"2025-294U","EPOCH":"2026-03-21T22:49:58.970208","MEAN_MOTION":15.27578076,"ECCENTRICITY":0.00015197,"INCLINATION":43.0039,"RA_OF_ASC_NODE":328.9017,"ARG_OF_PERICENTER":276.46,"MEAN_ANOMALY":83.6078,"EPHEMERIS_TYPE":0,"CLASSIFICATION_TYPE":"U","NORAD_CAT_ID":67048,"ELEMENT_SET_NO":999,"REV_AT_EPOCH":1667,"BSTAR":0.0011473864,"MEAN_MOTION_DOT":0.00031444,"MEAN_MOTION_DDOT":0},{"OBJECT_NAME":"STARLINK-35877","OBJECT_ID":"2025-294V","EPOCH":"2026-03-21T16:53:42.020448","MEAN_MOTION":15.27636724,"ECCENTRICITY":0.00016857,"INCLINATION":42.9996,"RA_OF_ASC_NODE":330.4805,"ARG_OF_PERICENTER":257.5704,"MEAN_ANOMALY":102.4959,"EPHEMERIS_TYPE":0,"CLASSIFICATION_TYPE":"U","NORAD_CAT_ID":67049,"ELEMENT_SET_NO":999,"REV_AT_EPOCH":1663,"BSTAR":0.0012710938,"MEAN_MOTION_DOT":0.00034943,"MEAN_MOTION_DDOT":0},{"OBJECT_NAME":"STARLINK-36078","OBJECT_ID":"2025-294W","EPOCH":"2026-03-21T23:50:49.971552","MEAN_MOTION":15.27551552,"ECCENTRICITY":0.00012921,"INCLINATION":43.0017,"RA_OF_ASC_NODE":328.3527,"ARG_OF_PERICENTER":271.2336,"MEAN_ANOMALY":88.8368,"EPHEMERIS_TYPE":0,"CLASSIFICATION_TYPE":"U","NORAD_CAT_ID":67050,"ELEMENT_SET_NO":999,"REV_AT_EPOCH":1668,"BSTAR":-0.00043908961,"MEAN_MOTION_DOT":-0.00012314,"MEAN_MOTION_DDOT":0},{"OBJECT_NAME":"STARLINK-35706","OBJECT_ID":"2025-294X","EPOCH":"2026-03-21T18:00:07.086528","MEAN_MOTION":15.27642337,"ECCENTRICITY":0.00014288,"INCLINATION":43.0019,"RA_OF_ASC_NODE":329.9633,"ARG_OF_PERICENTER":257.5826,"MEAN_ANOMALY":102.4866,"EPHEMERIS_TYPE":0,"CLASSIFICATION_TYPE":"U","NORAD_CAT_ID":67051,"ELEMENT_SET_NO":999,"REV_AT_EPOCH":1664,"BSTAR":0.001495289,"MEAN_MOTION_DOT":0.00041194,"MEAN_MOTION_DDOT":0},{"OBJECT_NAME":"STARLINK-35720","OBJECT_ID":"2025-294Y","EPOCH":"2026-03-21T22:31:28.676640","MEAN_MOTION":15.27593454,"ECCENTRICITY":0.00022611,"INCLINATION":43.0048,"RA_OF_ASC_NODE":328.7989,"ARG_OF_PERICENTER":274.4886,"MEAN_ANOMALY":85.5707,"EPHEMERIS_TYPE":0,"CLASSIFICATION_TYPE":"U","NORAD_CAT_ID":67052,"ELEMENT_SET_NO":999,"REV_AT_EPOCH":1667,"BSTAR":-0.00023700277,"MEAN_MOTION_DOT":-6.781e-5,"MEAN_MOTION_DDOT":0}]
